CCSDS_OMM_VERS = 2.0
CREATION_DATE  = 
ORIGINATOR     = 

OBJECT_NAME    = CZ-12 R/B
OBJECT_ID      = 2026-013K
CENTER_NAME    = EARTH
REF_FRAME      = TEME
TIME_SYSTEM    = UTC
MEAN_ELEMENT_THEORY = SGP/SGP4

EPOCH          = 2026-01-29T13:02:05.395200
MEAN_MOTION    = 14.14454871
ECCENTRICITY   = .00690603
INCLINATION    = 49.9902
RA_OF_ASC_NODE = 142.8353
ARG_OF_PERICENTER = 163.0056
MEAN_ANOMALY   = 197.3188

EPHEMERIS_TYPE = 0
CLASSIFICATION_TYPE = U
NORAD_CAT_ID   = 67531
ELEMENT_SET_NO = 999
REV_AT_EPOCH   = 144
BSTAR          = .21650671E-3
MEAN_MOTION_DOT = .271E-5
MEAN_MOTION_DDOT = 0

CCSDS_OMM_VERS = 2.0
CREATION_DATE  = 
ORIGINATOR     = 

OBJECT_NAME    = STARLINK-36587
OBJECT_ID      = 2026-014A
CENTER_NAME    = EARTH
REF_FRAME      = TEME
TIME_SYSTEM    = UTC
MEAN_ELEMENT_THEORY = SGP/SGP4

EPOCH          = 2026-02-02T14:00:01.999872
MEAN_MOTION    = 15.84056701
ECCENTRICITY   = .00017314
INCLINATION    = 97.2816
RA_OF_ASC_NODE = 276.6754
ARG_OF_PERICENTER = 79.4498
MEAN_ANOMALY   = 140.2886

EPHEMERIS_TYPE = 0
CLASSIFICATION_TYPE = U
NORAD_CAT_ID   = 67532
ELEMENT_SET_NO = 999
REV_AT_EPOCH   = 304
BSTAR          = -.73657973E-2
MEAN_MOTION_DOT = -.1428173E-1
MEAN_MOTION_DDOT = 0

CCSDS_OMM_VERS = 2.0
CREATION_DATE  = 
ORIGINATOR     = 

OBJECT_NAME    = STARLINK-36417
OBJECT_ID      = 2026-014B
CENTER_NAME    = EARTH
REF_FRAME      = TEME
TIME_SYSTEM    = UTC
MEAN_ELEMENT_THEORY = SGP/SGP4

EPOCH          = 2026-02-02T14:00:01.999872
MEAN_MOTION    = 15.84140095
ECCENTRICITY   = .00018076
INCLINATION    = 97.2818
RA_OF_ASC_NODE = 276.6763
ARG_OF_PERICENTER = 83.3573
MEAN_ANOMALY   = 138.9366

EPHEMERIS_TYPE = 0
CLASSIFICATION_TYPE = U
NORAD_CAT_ID   = 67533
ELEMENT_SET_NO = 999
REV_AT_EPOCH   = 304
BSTAR          = -.73370621E-2
MEAN_MOTION_DOT = -.1428341E-1
MEAN_MOTION_DDOT = 0

CCSDS_OMM_VERS = 2.0
CREATION_DATE  = 
ORIGINATOR     = 

OBJECT_NAME    = STARLINK-36576
OBJECT_ID      = 2026-014C
CENTER_NAME    = EARTH
REF_FRAME      = TEME
TIME_SYSTEM    = UTC
MEAN_ELEMENT_THEORY = SGP/SGP4

EPOCH          = 2026-02-02T14:00:01.999872
MEAN_MOTION    = 15.84297613
ECCENTRICITY   = .00018881
INCLINATION    = 97.2817
RA_OF_ASC_NODE = 276.6781
ARG_OF_PERICENTER = 89.8114
MEAN_ANOMALY   = 136.9093

EPHEMERIS_TYPE = 0
CLASSIFICATION_TYPE = U
NORAD_CAT_ID   = 67534
ELEMENT_SET_NO = 999
REV_AT_EPOCH   = 304
BSTAR          = -.72391774E-2
MEAN_MOTION_DOT = -.1421141E-1
MEAN_MOTION_DDOT = 0

CCSDS_OMM_VERS = 2.0
CREATION_DATE  = 
ORIGINATOR     = 

OBJECT_NAME    = STARLINK-36574
OBJECT_ID      = 2026-014D
CENTER_NAME    = EARTH
REF_FRAME      = TEME
TIME_SYSTEM    = UTC
MEAN_ELEMENT_THEORY = SGP/SGP4

EPOCH          = 2026-02-02T14:00:01.999872
MEAN_MOTION    = 15.84536994
ECCENTRICITY   = .00014541
INCLINATION    = 97.2819
RA_OF_ASC_NODE = 276.6808
ARG_OF_PERICENTER = 87.4464
MEAN_ANOMALY   = 145.6067

EPHEMERIS_TYPE = 0
CLASSIFICATION_TYPE = U
NORAD_CAT_ID   = 67535
ELEMENT_SET_NO = 999
REV_AT_EPOCH   = 304
BSTAR          = -.71641522E-2
MEAN_MOTION_DOT = -.1422127E-1
MEAN_MOTION_DDOT = 0

CCSDS_OMM_VERS = 2.0
CREATION_DATE  = 
ORIGINATOR     = 

OBJECT_NAME    = STARLINK-36572
OBJECT_ID      = 2026-014E
CENTER_NAME    = EARTH
REF_FRAME      = TEME
TIME_SYSTEM    = UTC
MEAN_ELEMENT_THEORY = SGP/SGP4

EPOCH          = 2026-02-02T14:00:01.999872
MEAN_MOTION    = 15.84752587
ECCENTRICITY   = .00015372
INCLINATION    = 97.2817
RA_OF_ASC_NODE = 276.6832
ARG_OF_PERICENTER = 82.2137
MEAN_ANOMALY   = 156.6885

EPHEMERIS_TYPE = 0
CLASSIFICATION_TYPE = U
NORAD_CAT_ID   = 67536
ELEMENT_SET_NO = 999
REV_AT_EPOCH   = 304
BSTAR          = -.70553254E-2
MEAN_MOTION_DOT = -.1416123E-1
MEAN_MOTION_DDOT = 0

CCSDS_OMM_VERS = 2.0
CREATION_DATE  = 
ORIGINATOR     = 

OBJECT_NAME    = STARLINK-36561
OBJECT_ID      = 2026-014F
CENTER_NAME    = EARTH
REF_FRAME      = TEME
TIME_SYSTEM    = UTC
MEAN_ELEMENT_THEORY = SGP/SGP4

EPOCH          = 2026-02-02T14:00:01.999872
MEAN_MOTION    = 15.84922585
ECCENTRICITY   = .00015202
INCLINATION    = 97.2813
RA_OF_ASC_NODE = 276.6848
ARG_OF_PERICENTER = 82.8106
MEAN_ANOMALY   = 160.8169

EPHEMERIS_TYPE = 0
CLASSIFICATION_TYPE = U
NORAD_CAT_ID   = 67537
ELEMENT_SET_NO = 999
REV_AT_EPOCH   = 304
BSTAR          = -.69860447E-2
MEAN_MOTION_DOT = -.1414061E-1
MEAN_MOTION_DDOT = 0

CCSDS_OMM_VERS = 2.0
CREATION_DATE  = 
ORIGINATOR     = 

OBJECT_NAME    = STARLINK-36397
OBJECT_ID      = 2026-014G
CENTER_NAME    = EARTH
REF_FRAME      = TEME
TIME_SYSTEM    = UTC
MEAN_ELEMENT_THEORY = SGP/SGP4

EPOCH          = 2026-02-02T14:00:01.999872
MEAN_MOTION    = 15.85071575
ECCENTRICITY   = .00015318
INCLINATION    = 97.2810
RA_OF_ASC_NODE = 276.6861
ARG_OF_PERICENTER = 83.2881
MEAN_ANOMALY   = 164.5080

EPHEMERIS_TYPE = 0
CLASSIFICATION_TYPE = U
NORAD_CAT_ID   = 67538
ELEMENT_SET_NO = 999
REV_AT_EPOCH   = 304
BSTAR          = -.69190426E-2
MEAN_MOTION_DOT = -.1411077E-1
MEAN_MOTION_DDOT = 0

CCSDS_OMM_VERS = 2.0
CREATION_DATE  = 
ORIGINATOR     = 

OBJECT_NAME    = STARLINK-36573
OBJECT_ID      = 2026-014H
CENTER_NAME    = EARTH
REF_FRAME      = TEME
TIME_SYSTEM    = UTC
MEAN_ELEMENT_THEORY = SGP/SGP4

EPOCH          = 2026-02-02T14:00:01.999872
MEAN_MOTION    = 15.85267313
ECCENTRICITY   = .00013898
INCLINATION    = 97.2810
RA_OF_ASC_NODE = 276.6884
ARG_OF_PERICENTER = 86.8385
MEAN_ANOMALY   = 166.1707

EPHEMERIS_TYPE = 0
CLASSIFICATION_TYPE = U
NORAD_CAT_ID   = 67539
ELEMENT_SET_NO = 999
REV_AT_EPOCH   = 304
BSTAR          = -.68507575E-2
MEAN_MOTION_DOT = -.1410424E-1
MEAN_MOTION_DDOT = 0

CCSDS_OMM_VERS = 2.0
CREATION_DATE  = 
ORIGINATOR     = 

OBJECT_NAME    = STARLINK-36585
OBJECT_ID      = 2026-014J
CENTER_NAME    = EARTH
REF_FRAME      = TEME
TIME_SYSTEM    = UTC
MEAN_ELEMENT_THEORY = SGP/SGP4

EPOCH          = 2026-02-02T14:00:01.999872
MEAN_MOTION    = 15.85427119
ECCENTRICITY   = .00015241
INCLINATION    = 97.2807
RA_OF_ASC_NODE = 276.6897
ARG_OF_PERICENTER = 81.8110
MEAN_ANOMALY   = 175.6910

EPHEMERIS_TYPE = 0
CLASSIFICATION_TYPE = U
NORAD_CAT_ID   = 67540
ELEMENT_SET_NO = 999
REV_AT_EPOCH   = 304
BSTAR          = -.67710203E-2
MEAN_MOTION_DOT = -.140568E-1
MEAN_MOTION_DDOT = 0

CCSDS_OMM_VERS = 2.0
CREATION_DATE  = 
ORIGINATOR     = 

OBJECT_NAME    = STARLINK-36579
OBJECT_ID      = 2026-014K
CENTER_NAME    = EARTH
REF_FRAME      = TEME
TIME_SYSTEM    = UTC
MEAN_ELEMENT_THEORY = SGP/SGP4

EPOCH          = 2026-02-02T14:00:01.999872
MEAN_MOTION    = 15.85651068
ECCENTRICITY   = .0001492
INCLINATION    = 97.2808
RA_OF_ASC_NODE = 276.6927
ARG_OF_PERICENTER = 79.2061
MEAN_ANOMALY   = 184.3237

EPHEMERIS_TYPE = 0
CLASSIFICATION_TYPE = U
NORAD_CAT_ID   = 67541
ELEMENT_SET_NO = 999
REV_AT_EPOCH   = 304
BSTAR          = -.66785289E-2
MEAN_MOTION_DOT = -.1402145E-1
MEAN_MOTION_DDOT = 0

CCSDS_OMM_VERS = 2.0
CREATION_DATE  = 
ORIGINATOR     = 

OBJECT_NAME    = STARLINK-35934
OBJECT_ID      = 2026-014L
CENTER_NAME    = EARTH
REF_FRAME      = TEME
TIME_SYSTEM    = UTC
MEAN_ELEMENT_THEORY = SGP/SGP4

EPOCH          = 2026-02-02T14:00:01.999872
MEAN_MOTION    = 15.85904119
ECCENTRICITY   = .00013838
INCLINATION    = 97.2807
RA_OF_ASC_NODE = 276.6954
ARG_OF_PERICENTER = 85.5564
MEAN_ANOMALY   = 184.6371

EPHEMERIS_TYPE = 0
CLASSIFICATION_TYPE = U
NORAD_CAT_ID   = 67542
ELEMENT_SET_NO = 999
REV_AT_EPOCH   = 303
BSTAR          = -.65733566E-2
MEAN_MOTION_DOT = -.1397736E-1
MEAN_MOTION_DDOT = 0

