CZ-12 R/B               
1 67531U 26013K   26029.54311800  .00000271  00000+0  21651-3 0  9992
2 67531  49.9902 142.8353 0069060 163.0056 197.3188 14.14454871  1440
STARLINK-36587          
1 67532U 26014A   26033.58335648 -.01428173  00000+0 -73658-2 0  9990
2 67532  97.2816 276.6754 0001731  79.4498 140.2886 15.84056701  3041
STARLINK-36417          
1 67533U 26014B   26033.58335648 -.01428341  00000+0 -73371-2 0  9990
2 67533  97.2818 276.6763 0001807  83.3573 138.9366 15.84140095  3043
STARLINK-36576          
1 67534U 26014C   26033.58335648 -.01421141  00000+0 -72392-2 0  9994
2 67534  97.2817 276.6781 0001888  89.8114 136.9093 15.84297613  3048
STARLINK-36574          
1 67535U 26014D   26033.58335648 -.01422127  00000+0 -71642-2 0  9997
2 67535  97.2819 276.6808 0001454  87.4464 145.6067 15.84536994  3048
STARLINK-36572          
1 67536U 26014E   26033.58335648 -.01416123  00000+0 -70553-2 0  9997
2 67536  97.2817 276.6832 0001537  82.2137 156.6885 15.84752587  3044
STARLINK-36561          
1 67537U 26014F   26033.58335648 -.01414061  00000+0 -69860-2 0  9996
2 67537  97.2813 276.6848 0001520  82.8106 160.8169 15.84922585  3041
STARLINK-36397          
1 67538U 26014G   26033.58335648 -.01411077  00000+0 -69190-2 0  9997
2 67538  97.2810 276.6861 0001531  83.2881 164.5080 15.85071575  3049
STARLINK-36573          
1 67539U 26014H   26033.58335648 -.01410424  00000+0 -68508-2 0  9995
2 67539  97.2810 276.6884 0001389  86.8385 166.1707 15.85267313  3045
STARLINK-36585          
1 67540U 26014J   26033.58335648 -.01405680  00000+0 -67710-2 0  9999
2 67540  97.2807 276.6897 0001524  81.8110 175.6910 15.85427119  3042
STARLINK-36579          
1 67541U 26014K   26033.58335648 -.01402145  00000+0 -66785-2 0  9994
2 67541  97.2808 276.6927 0001492  79.2061 184.3237 15.85651068  3049
STARLINK-35934          
1 67542U 26014L   26033.58335648 -.01397736  00000+0 -65734-2 0  9997
2 67542  97.2807 276.6954 0001383  85.5564 184.6371 15.85904119  3035
